{
  "type": "FeatureCollection",
  "features": [
    {
      "type": "Feature",
      "properties": {
        "norad_id": 66891,
        "name": "STARLINK-35855",
        "group": "last-30-days",
        "lat": 7.036848336704243,
        "lon": -135.88048451548022,
        "alt_km": 325.66228015108663,
        "timestamp": "2025-12-17T13:48:36.281207+00:00",
        "meta_object_name": "STARLINK-35855",
        "meta_object_id": "2025-283P",
        "meta_epoch": "2025-12-17T06:00:00.999648",
        "meta_mean_motion": 15.82693433,
        "meta_eccentricity": 0.00012189,
        "meta_inclination": 53.1554,
        "meta_ra_of_asc_node": 51.0651,
        "meta_arg_of_pericenter": 77.4349,
        "meta_mean_anomaly": 39.0965,
        "meta_ephemeris_type": 0,
        "meta_classification_type": "U",
        "meta_norad_cat_id": 66891,
        "meta_element_set_no": 999,
        "meta_rev_at_epoch": 315,
        "meta_bstar": -0.0076533139,
        "meta_mean_motion_dot": -0.01457635,
        "meta_mean_motion_ddot": 0,
        "tle_line1": "1 66891U 25283P   25351.25001157 -.01457635  00000+0 -76533-2 0  9995",
        "tle_line2": "2 66891  53.1554  51.0651 0001218  77.4349  39.0965 15.82693433  3154"
      },
      "geometry": {
        "type": "Point",
        "coordinates": [
          -135.88048451548022,
          7.036848336704243
        ]
      }
    },
    {
      "type": "Feature",
      "properties": {
        "norad_id": 66892,
        "name": "STARLINK-35883",
        "group": "last-30-days",
        "lat": 5.036762817888279,
        "lon": -134.3647721344884,
        "alt_km": 326.06539492516276,
        "timestamp": "2025-12-17T13:48:36.281217+00:00",
        "meta_object_name": "STARLINK-35883",
        "meta_object_id": "2025-283Q",
        "meta_epoch": "2025-12-17T06:00:00.999648",
        "meta_mean_motion": 15.82659336,
        "meta_eccentricity": 9.817e-05,
        "meta_inclination": 53.1552,
        "meta_ra_of_asc_node": 51.0592,
        "meta_arg_of_pericenter": 87.4582,
        "meta_mean_anomaly": 31.6255,
        "meta_ephemeris_type": 0,
        "meta_classification_type": "U",
        "meta_norad_cat_id": 66892,
        "meta_element_set_no": 999,
        "meta_rev_at_epoch": 309,
        "meta_bstar": -0.0077009455,
        "meta_mean_motion_dot": -0.01463405,
        "meta_mean_motion_ddot": 0,
        "tle_line1": "1 66892U 25283Q   25351.25001157 -.01463405  00000+0 -77009-2 0  9997",
        "tle_line2": "2 66892  53.1552  51.0592 0000981  87.4582  31.6255 15.82659336  3090"
      },
      "geometry": {
        "type": "Point",
        "coordinates": [
          -134.3647721344884,
          5.036762817888279
        ]
      }
    },
    {
      "type": "Feature",
      "properties": {
        "norad_id": 66893,
        "name": "STARLINK-36033",
        "group": "last-30-days",
        "lat": 3.089044771707235,
        "lon": -132.89953416195328,
        "alt_km": 326.47539130039877,
        "timestamp": "2025-12-17T13:48:36.281226+00:00",
        "meta_object_name": "STARLINK-36033",
        "meta_object_id": "2025-283R",
        "meta_epoch": "2025-12-17T06:00:00.999648",
        "meta_mean_motion": 15.82627814,
        "meta_eccentricity": 0.00010199,
        "meta_inclination": 53.1551,
        "meta_ra_of_asc_node": 51.0542,
        "meta_arg_of_pericenter": 77.6362,
        "meta_mean_anomaly": 43.9235,
        "meta_ephemeris_type": 0,
        "meta_classification_type": "U",
        "meta_norad_cat_id": 66893,
        "meta_element_set_no": 999,
        "meta_rev_at_epoch": 315,
        "meta_bstar": -0.0077375698,
        "meta_mean_motion_dot": -0.01467642,
        "meta_mean_motion_ddot": 0,
        "tle_line1": "1 66893U 25283R   25351.25001157 -.01467642  00000+0 -77376-2 0  9992",
        "tle_line2": "2 66893  53.1551  51.0542 0001019  77.6362  43.9235 15.82627814  3152"
      },
      "geometry": {
        "type": "Point",
        "coordinates": [
          -132.89953416195328,
          3.089044771707235
        ]
      }
    },
    {
      "type": "Feature",
      "properties": {
        "norad_id": 66894,
        "name": "STARLINK-35718",
        "group": "last-30-days",
        "lat": 0.8107346697267064,
        "lon": -131.19369277005993,
        "alt_km": 327.05270316757924,
        "timestamp": "2025-12-17T13:48:36.281238+00:00",
        "meta_object_name": "STARLINK-35718",
        "meta_object_id": "2025-283S",
        "meta_epoch": "2025-12-17T06:00:00.999648",
        "meta_mean_motion": 15.8256813,
        "meta_eccentricity": 0.00012527,
        "meta_inclination": 53.1554,
        "meta_ra_of_asc_node": 51.0486,
        "meta_arg_of_pericenter": 77.428,
        "meta_mean_anomaly": 47.0547,
        "meta_ephemeris_type": 0,
        "meta_classification_type": "U",
        "meta_norad_cat_id": 66894,
        "meta_element_set_no": 999,
        "meta_rev_at_epoch": 315,
        "meta_bstar": -0.0078545526,
        "meta_mean_motion_dot": -0.01483675,
        "meta_mean_motion_ddot": 0,
        "tle_line1": "1 66894U 25283S   25351.25001157 -.01483675  00000+0 -78546-2 0  9997",
        "tle_line2": "2 66894  53.1554  51.0486 0001252  77.4280  47.0547 15.82568130  3155"
      },
      "geometry": {
        "type": "Point",
        "coordinates": [
          -131.19369277005993,
          0.8107346697267064
        ]
      }
    },
    {
      "type": "Feature",
      "properties": {
        "norad_id": 66895,
        "name": "STARLINK-35971",
        "group": "last-30-days",
        "lat": -3.222340313524376,
        "lon": -128.17769566995298,
        "alt_km": 327.9008110763016,
        "timestamp": "2025-12-17T13:48:36.281247+00:00",
        "meta_object_name": "STARLINK-35971",
        "meta_object_id": "2025-283T",
        "meta_epoch": "2025-12-17T06:00:00.999648",
        "meta_mean_motion": 15.82490825,
        "meta_eccentricity": 0.00011136,
        "meta_inclination": 53.1548,
        "meta_ra_of_asc_node": 51.0368,
        "meta_arg_of_pericenter": 74.1668,
        "meta_mean_anomaly": 55.4561,
        "meta_ephemeris_type": 0,
        "meta_classification_type": "U",
        "meta_norad_cat_id": 66895,
        "meta_element_set_no": 999,
        "meta_rev_at_epoch": 315,
        "meta_bstar": -0.0079584618,
        "meta_mean_motion_dot": -0.01496037,
        "meta_mean_motion_ddot": 0,
        "tle_line1": "1 66895U 25283T   25351.25001157 -.01496037  00000+0 -79585-2 0  9998",
        "tle_line2": "2 66895  53.1548  51.0368 0001113  74.1668  55.4561 15.82490825  3152"
      },
      "geometry": {
        "type": "Point",
        "coordinates": [
          -128.17769566995298,
          -3.222340313524376
        ]
      }
    },
    {
      "type": "Feature",
      "properties": {
        "norad_id": 66896,
        "name": "STARLINK-35791",
        "group": "last-30-days",
        "lat": -1.280091660792369,
        "lon": -129.6319911647833,
        "alt_km": 327.5015507625394,
        "timestamp": "2025-12-17T13:48:36.281257+00:00",
        "meta_object_name": "STARLINK-35791",
        "meta_object_id": "2025-283U",
        "meta_epoch": "2025-12-17T06:00:00.999648",
        "meta_mean_motion": 15.82523746,
        "meta_eccentricity": 8.868e-05,
        "meta_inclination": 53.1551,
        "meta_ra_of_asc_node": 51.0421,
        "meta_arg_of_pericenter": 83.7902,
        "meta_mean_anomaly": 43.3663,
        "meta_ephemeris_type": 0,
        "meta_classification_type": "U",
        "meta_norad_cat_id": 66896,
        "meta_element_set_no": 999,
        "meta_rev_at_epoch": 315,
        "meta_bstar": -0.0079271946,
        "meta_mean_motion_dot": -0.01492752,
        "meta_mean_motion_ddot": 0,
        "tle_line1": "1 66896U 25283U   25351.25001157 -.01492752  00000+0 -79272-2 0  9992",
        "tle_line2": "2 66896  53.1551  51.0421 0000886  83.7902  43.3663 15.82523746  3158"
      },
      "geometry": {
        "type": "Point",
        "coordinates": [
          -129.6319911647833,
          -1.280091660792369
        ]
      }
    },
    {
      "type": "Feature",
      "properties": {
        "norad_id": 66897,
        "name": "STARLINK-36079",
        "group": "last-30-days",
        "lat": -5.360535840029466,
        "lon": -126.56755964295748,
        "alt_km": 328.2830553825743,
        "timestamp": "2025-12-17T13:48:36.281268+00:00",
        "meta_object_name": "STARLINK-36079",
        "meta_object_id": "2025-283V",
        "meta_epoch": "2025-12-17T06:00:00.999648",
        "meta_mean_motion": 15.82441295,
        "meta_eccentricity": 0.00011368,
        "meta_inclination": 53.1549,
        "meta_ra_of_asc_node": 51.0316,
        "meta_arg_of_pericenter": 81.2795,
        "meta_mean_anomaly": 51.0822,
        "meta_ephemeris_type": 0,
        "meta_classification_type": "U",
        "meta_norad_cat_id": 66897,
        "meta_element_set_no": 999,
        "meta_rev_at_epoch": 315,
        "meta_bstar": -0.0080305454,
        "meta_mean_motion_dot": -0.01504873,
        "meta_mean_motion_ddot": 0,
        "tle_line1": "1 66897U 25283V   25351.25001157 -.01504873  00000+0 -80305-2 0  9990",
        "tle_line2": "2 66897  53.1549  51.0316 0001136  81.2795  51.0822 15.82441295  3152"
      },
      "geometry": {
        "type": "Point",
        "coordinates": [
          -126.56755964295748,
          -5.360535840029466
        ]
      }
    }
  ]
}